LEMUR-1                 
1 40044U 14033AL  26194.36528421  .00000822  00000+0  10006-3 0  9997
2 40044  97.7905 343.5942 0047928 353.9805   6.0828 14.85333807649357
LEMUR-2-GREENBERG       
1 42837U 17042N   26194.47946093  .00009474  00000+0  30775-3 0  9990
2 42837  97.3826  14.9999 0007161 266.6725  93.3697 15.32118737492416
LEMUR-2-ANDIS           
1 42838U 17042P   26194.31617300  .00013773  00000+0  39626-3 0  9991
2 42838  97.3675  15.1146 0007134 265.7451  94.2978 15.35874603492463
LEMUR-2-MONSON          
1 42839U 17042Q   26194.48031304  .00008012  00000+0  28945-3 0  9996
2 42839  97.4083  14.9315 0005234 253.3353 106.7313 15.28724915492189
LEMUR-2-FURIAUS         
1 42840U 17042R   26193.44556340  .00010642  00000+0  35675-3 0  9995
2 42840  97.3775  11.8672 0006239 340.6601  19.4403 15.31072029492076
LEMUR-2-PETERG          
1 42841U 17042S   26194.51152372  .00011665  00000+0  34587-3 0  9999
2 42841  97.3988  19.6057 0003183 227.4106 132.6869 15.34989472492473
LEMUR-2-DEMBITZ         
1 42842U 17042T   26194.44561220  .00010407  00000+0  34897-3 0  9995
2 42842  97.3823  15.9038 0005025 282.7378  77.3301 15.31075730492366
LEMUR-2-ZACHARY         
1 42845U 17042W   26194.50547503  .00031484  00000+0  51241-3 0  9993
2 42845  97.3570  26.7449 0002475 255.1233 104.9746 15.52606320493284
LEMUR-2-AMANDA-SVANTE   
1 48269U 21034B   26193.77964350  .00025852  00000+0  74134-3 0  9994
2 48269  97.5758 272.7671 0004530 149.3541 210.7967 15.35862163284986
LEMUR-2-SPECIAL-K       
1 48273U 21034F   26193.79103831  .00224827  00000+0  15540-2 0  9998
2 48273  97.5640 282.6731 0006209 216.3246 143.7597 15.73857408285703
LEMUR-2-EMBRIONOVIS     
1 56970U 23084AQ  26194.35851155  .00008792  00000+0  23578-3 0  9992
2 56970  97.6315 339.5788 0008139 213.3125 146.7607 15.38198824171707
LEMUR-2-DEVERILL-M-T    
1 57391U 23100F   26194.02321249  .00019765  00000+0  48096-3 0  9993
2 57391  99.4456 240.2682 0004659 306.5620  53.5190 15.41024565165226
LEMUR-2-BASS            
1 58259U 23174D   26193.94739668  .00013088  00000+0  28921-3 0  9993
2 58259  97.3851 279.0335 0007768  85.0548 275.1587 15.43947109149339
LEMUR-2-JK0903EM1407    
1 58336U 23174CJ  26194.05709345  .00020824  00000+0  33514-3 0  9991
2 58336  97.3925 285.2802 0003816  41.2972 318.8569 15.52994867149743
LEMUR-2-MJR092620       
1 58340U 23174CN  26194.51289469  .00011490  00000+0  23870-3 0  9990
2 58340  97.3982 285.0435 0005461  35.7495 324.4118 15.45822187149714
LEMUR-2-NIMBUS2000      
1 58899U 24022A   26194.51537384  .00013841  00000+0  33633-3 0  9994
2 58899  97.4084  44.8635 0008918  34.2151 325.9668 15.41070086136321
LEMUR-2-VALHALLA        
1 58900U 24022B   26194.51955492  .00009838  00000+0  24466-3 0  9996
2 58900  97.4077  44.8395 0009368  29.8669 330.3110 15.40455427136320
LEMUR-2-CAEL            
1 58903U 24022E   26194.50664148  .00010583  00000+0  25158-3 0  9991
2 58903  97.4063  45.8095 0007300  15.6221 344.5250 15.41818881136394
LEMUR-2-JOHNNYTRUONG    
1 59146U 24043BA  26194.42472731  .00027470  00000+0  31009-3 0  9995
2 59146  97.5381 347.7948 0004184  98.9068 261.2663 15.62464736132139
LEMUR-2-TOMATOKECHUP    
1 60471U 24149D   26193.77009299  .00007744  00000+0  21932-3 0  9993
2 60471  97.3802 275.8895 0003217 127.0790 233.0748 15.36552511106099
LEMUR-2-STELLA          
1 60533U 24149BT  26194.22116068  .00006342  00000+0  36958-3 0  9993
2 60533  97.6740 276.7986 0001238 110.4847 249.6516 15.12347707104438
LEMUR-2-MARHISYAM       
1 60536U 24149BW  26194.01272818  .00006657  00000+0  39418-3 0  9992
2 60536  97.6885 277.0636 0002715  73.2664 286.8864 15.11754239104385
LEMUR-2-AHMED-ASRAR     
1 60576U 24149DN  26193.75694365  .00007696  00000+0  43625-3 0  9990
2 60576  97.7013 278.9991 0000936 206.0418 154.0766 15.13277524104435
LEMUR-2-LLOYD           
1 60577U 24149DP  26194.16028014  .00006603  00000+0  41326-3 0  9992
2 60577  97.6750 275.3105 0004844  76.5693 283.6075 15.09730336104317
LEMUR-2-SQUIRRELCOMM    
1 60578U 24149DQ  26194.47768691  .00002936  00000+0  19797-3 0  9991
2 60578  97.6716 275.3097 0004161 336.8563  23.2477 15.07437793104368
LEMUR-2-SIERRINI        
1 60579U 24149DR  26194.17363868  .00007136  00000+0  42518-3 0  9990
2 60579  97.6847 276.8886 0006409  95.7209 264.4752 15.11486633104380
LEMUR-2-WILSON          
1 62694U 25009CP  26194.52887334  .00000713  00000+0  69875-4 0  9994
2 62694  97.7022 272.5318 0002156 334.3743  25.7371 14.95273821 81292
LEMUR-2-STAR-FOX        
1 62696U 25009CR  26194.19596184  .00003538  00000+0  26868-3 0  9991
2 62696  97.6916 275.6183 0002496  51.1961 308.9486 15.02826817 81462
LEMUR-2-ARIANNA         
1 62699U 25009CU  26194.19443012  .00003668  00000+0  27836-3 0  9995
2 62699  97.6857 275.3703 0002756  58.1341 302.0152 15.02827703 81462
LEMUR-2-ALISIA          
1 62706U 25009DB  26194.16723686  .00004726  00000+0  35425-3 0  9998
2 62706  97.6972 276.1644 0004039 134.8239 225.3315 15.03157072104062
